[{"OBJECT_NAME":"STARLINK-30997","OBJECT_ID":"2023-186K","EPOCH":"2026-03-09T00:15:15.075360","MEAN_MOTION":15.26763988,"ECCENTRICITY":4.996e-5,"INCLINATION":42.9998,"RA_OF_ASC_NODE":67.3412,"ARG_OF_PERICENTER":244.0827,"MEAN_ANOMALY":115.9973,"EPHEMERIS_TYPE":0,"CLASSIFICATION_TYPE":"U","NORAD_CAT_ID":58482,"ELEMENT_SET_NO":999,"REV_AT_EPOCH":12579,"BSTAR":0.00089142251,"MEAN_MOTION_DOT":0.00023746,"MEAN_MOTION_DDOT":0},{"OBJECT_NAME":"OBJECT C","OBJECT_ID":"2025-197C","EPOCH":"2026-03-09T23:04:01.696800","MEAN_MOTION":15.23580455,"ECCENTRICITY":0.00147185,"INCLINATION":97.4111,"RA_OF_ASC_NODE":257.1199,"ARG_OF_PERICENTER":4.9748,"MEAN_ANOMALY":355.1632,"EPHEMERIS_TYPE":0,"CLASSIFICATION_TYPE":"U","NORAD_CAT_ID":65490,"ELEMENT_SET_NO":999,"REV_AT_EPOCH":2820,"BSTAR":0.00026991529,"MEAN_MOTION_DOT":6.405e-5,"MEAN_MOTION_DDOT":0}]
